[
  {
    "OBJECT_NAME": "STARLINK-4345",
    "OBJECT_ID": "22077G",
    "EPOCH": "2025-11-11T01:16:56.578368",
    "MEAN_MOTION": 15.01262124,
    "ECCENTRICITY": 0.0001217,
    "INCLINATION": 97.6037,
    "RA_OF_ASC_NODE": 134.0787,
    "ARG_OF_PERICENTER": 94.3562,
    "MEAN_ANOMALY": 265.7802,
    "EPHEMERIS_TYPE": 0,
    "CLASSIFICATION_TYPE": "U",
    "NORAD_CAT_ID": 53049,
    "ELEMENT_SET_NO": 999,
    "REV_AT_EPOCH": 18311,
    "BSTAR": 8.572600000000001e-05,
    "MEAN_MOTION_DOT": 1.043e-05,
    "MEAN_MOTION_DDOT": 0.0,
    "TLE_LINE1": "1 53049U 22077G   25315.05343262  .00001043  00000+0  85726-4 0  9999",
    "TLE_LINE2": "2 53049  97.6037 134.0787 0001217  94.3562 265.7802 15.01262124183113",
    "COMMENT": "Grouped by shell and plane from TLE"
  },
  {
    "OBJECT_NAME": "STARLINK-4343",
    "OBJECT_ID": "22077H",
    "EPOCH": "2025-11-11T05:52:31.150272",
    "MEAN_MOTION": 15.05668177,
    "ECCENTRICITY": 0.0001599,
    "INCLINATION": 97.603,
    "RA_OF_ASC_NODE": 134.4378,
    "ARG_OF_PERICENTER": 84.1212,
    "MEAN_ANOMALY": 276.0197,
    "EPHEMERIS_TYPE": 0,
    "CLASSIFICATION_TYPE": "U",
    "NORAD_CAT_ID": 53050,
    "ELEMENT_SET_NO": 999,
    "REV_AT_EPOCH": 18315,
    "BSTAR": 0.0001778,
    "MEAN_MOTION_DOT": 2.507e-05,
    "MEAN_MOTION_DDOT": 0.0,
    "TLE_LINE1": "1 53050U 22077H   25315.24480498  .00002507  00000+0  17780-3 0  9995",
    "TLE_LINE2": "2 53050  97.6030 134.4378 0001599  84.1212 276.0197 15.05668177183158",
    "COMMENT": "Grouped by shell and plane from TLE"
  },
  {
    "OBJECT_NAME": "STARLINK-4336",
    "OBJECT_ID": "22077J",
    "EPOCH": "2025-11-11T06:15:32.736384",
    "MEAN_MOTION": 15.01262881,
    "ECCENTRICITY": 6.9e-05,
    "INCLINATION": 97.6048,
    "RA_OF_ASC_NODE": 134.2498,
    "ARG_OF_PERICENTER": 96.2865,
    "MEAN_ANOMALY": 263.8438,
    "EPHEMERIS_TYPE": 0,
    "CLASSIFICATION_TYPE": "U",
    "NORAD_CAT_ID": 53051,
    "ELEMENT_SET_NO": 999,
    "REV_AT_EPOCH": 18314,
    "BSTAR": 4.7543e-05,
    "MEAN_MOTION_DOT": 5.52e-06,
    "MEAN_MOTION_DDOT": 0.0,
    "TLE_LINE1": "1 53051U 22077J   25315.26079556  .00000552  00000+0  47543-4 0  9996",
    "TLE_LINE2": "2 53051  97.6048 134.2498 0000690  96.2865 263.8438 15.01262881183147",
    "COMMENT": "Grouped by shell and plane from TLE"
  },
  {
    "OBJECT_NAME": "STARLINK-4341",
    "OBJECT_ID": "22077K",
    "EPOCH": "2025-11-11T06:10:12.917280",
    "MEAN_MOTION": 15.0126169,
    "ECCENTRICITY": 8.03e-05,
    "INCLINATION": 97.6042,
    "RA_OF_ASC_NODE": 134.2693,
    "ARG_OF_PERICENTER": 71.2295,
    "MEAN_ANOMALY": 288.9016,
    "EPHEMERIS_TYPE": 0,
    "CLASSIFICATION_TYPE": "U",
    "NORAD_CAT_ID": 53052,
    "ELEMENT_SET_NO": 999,
    "REV_AT_EPOCH": 18314,
    "BSTAR": 7.731200000000001e-05,
    "MEAN_MOTION_DOT": 9.35e-06,
    "MEAN_MOTION_DDOT": 0.0,
    "TLE_LINE1": "1 53052U 22077K   25315.25709395  .00000935  00000+0  77312-4 0  9999",
    "TLE_LINE2": "2 53052  97.6042 134.2693 0000803  71.2295 288.9016 15.01261690183142",
    "COMMENT": "Grouped by shell and plane from TLE"
  },
  {
    "OBJECT_NAME": "STARLINK-4337",
    "OBJECT_ID": "22077L",
    "EPOCH": "2025-11-11T01:11:36.789504",
    "MEAN_MOTION": 15.0126435,
    "ECCENTRICITY": 0.0002135,
    "INCLINATION": 97.6029,
    "RA_OF_ASC_NODE": 134.0705,
    "ARG_OF_PERICENTER": 78.7947,
    "MEAN_ANOMALY": 281.3518,
    "EPHEMERIS_TYPE": 0,
    "CLASSIFICATION_TYPE": "U",
    "NORAD_CAT_ID": 53053,
    "ELEMENT_SET_NO": 999,
    "REV_AT_EPOCH": 18311,
    "BSTAR": 5.4391e-05,
    "MEAN_MOTION_DOT": 6.4e-06,
    "MEAN_MOTION_DDOT": 0.0,
    "TLE_LINE1": "1 53053U 22077L   25315.04973136  .00000640  00000+0  54391-4 0  9998",
    "TLE_LINE2": "2 53053  97.6029 134.0705 0002135  78.7947 281.3518 15.01264350183113",
    "COMMENT": "Grouped by shell and plane from TLE"
  },
  {
    "OBJECT_NAME": "STARLINK-4339",
    "OBJECT_ID": "22077M",
    "EPOCH": "2025-11-11T01:49:19.144128",
    "MEAN_MOTION": 15.05648565,
    "ECCENTRICITY": 0.0001549,
    "INCLINATION": 97.6015,
    "RA_OF_ASC_NODE": 134.346,
    "ARG_OF_PERICENTER": 85.3424,
    "MEAN_ANOMALY": 274.798,
    "EPHEMERIS_TYPE": 0,
    "CLASSIFICATION_TYPE": "U",
    "NORAD_CAT_ID": 53054,
    "ELEMENT_SET_NO": 999,
    "REV_AT_EPOCH": 18313,
    "BSTAR": 1.931e-05,
    "MEAN_MOTION_DOT": 2.18e-06,
    "MEAN_MOTION_DDOT": 0.0,
    "TLE_LINE1": "1 53054U 22077M   25315.07591602  .00000218  00000+0  19310-4 0  9999",
    "TLE_LINE2": "2 53054  97.6015 134.3460 0001549  85.3424 274.7980 15.05648565183131",
    "COMMENT": "Grouped by shell and plane from TLE"
  },
  {
    "OBJECT_NAME": "STARLINK-4338",
    "OBJECT_ID": "22077N",
    "EPOCH": "2025-11-11T05:44:34.101312",
    "MEAN_MOTION": 15.05656566,
    "ECCENTRICITY": 0.0001568,
    "INCLINATION": 97.6022,
    "RA_OF_ASC_NODE": 134.4249,
    "ARG_OF_PERICENTER": 85.3967,
    "MEAN_ANOMALY": 274.7439,
    "EPHEMERIS_TYPE": 0,
    "CLASSIFICATION_TYPE": "U",
    "NORAD_CAT_ID": 53055,
    "ELEMENT_SET_NO": 999,
    "REV_AT_EPOCH": 18315,
    "BSTAR": 7.2519e-05,
    "MEAN_MOTION_DOT": 9.86e-06,
    "MEAN_MOTION_DDOT": 0.0,
    "TLE_LINE1": "1 53055U 22077N   25315.23928358  .00000986  00000+0  72519-4 0  9992",
    "TLE_LINE2": "2 53055  97.6022 134.4249 0001568  85.3967 274.7439 15.05656566183150",
    "COMMENT": "Grouped by shell and plane from TLE"
  },
  {
    "OBJECT_NAME": "STARLINK-4314",
    "OBJECT_ID": "22077P",
    "EPOCH": "2025-11-11T05:24:38.252736",
    "MEAN_MOTION": 15.05648227,
    "ECCENTRICITY": 0.0001767,
    "INCLINATION": 97.6014,
    "RA_OF_ASC_NODE": 134.4483,
    "ARG_OF_PERICENTER": 89.6039,
    "MEAN_ANOMALY": 270.539,
    "EPHEMERIS_TYPE": 0,
    "CLASSIFICATION_TYPE": "U",
    "NORAD_CAT_ID": 53056,
    "ELEMENT_SET_NO": 999,
    "REV_AT_EPOCH": 18315,
    "BSTAR": 5.797400000000001e-06,
    "MEAN_MOTION_DOT": 2.3e-07,
    "MEAN_MOTION_DDOT": 0.0,
    "TLE_LINE1": "1 53056U 22077P   25315.22544274  .00000023  00000+0  57974-5 0  9994",
    "TLE_LINE2": "2 53056  97.6014 134.4483 0001767  89.6039 270.5390 15.05648227183155",
    "COMMENT": "Grouped by shell and plane from TLE"
  },
  {
    "OBJECT_NAME": "STARLINK-4252",
    "OBJECT_ID": "22077Q",
    "EPOCH": "2025-11-11T01:13:26.032800",
    "MEAN_MOTION": 15.0566595,
    "ECCENTRICITY": 0.0001649,
    "INCLINATION": 97.6019,
    "RA_OF_ASC_NODE": 134.3526,
    "ARG_OF_PERICENTER": 70.931,
    "MEAN_ANOMALY": 289.2096,
    "EPHEMERIS_TYPE": 0,
    "CLASSIFICATION_TYPE": "U",
    "NORAD_CAT_ID": 53057,
    "ELEMENT_SET_NO": 999,
    "REV_AT_EPOCH": 18313,
    "BSTAR": 0.00014672,
    "MEAN_MOTION_DOT": 2.058e-05,
    "MEAN_MOTION_DDOT": 0.0,
    "TLE_LINE1": "1 53057U 22077Q   25315.05099575  .00002058  00000+0  14672-3 0  9991",
    "TLE_LINE2": "2 53057  97.6019 134.3526 0001649  70.9310 289.2096 15.05665950183132",
    "COMMENT": "Grouped by shell and plane from TLE"
  },
  {
    "OBJECT_NAME": "STARLINK-4317",
    "OBJECT_ID": "22077R",
    "EPOCH": "2025-11-11T01:30:37.640160",
    "MEAN_MOTION": 15.01256738,
    "ECCENTRICITY": 0.0002342,
    "INCLINATION": 97.6035,
    "RA_OF_ASC_NODE": 134.0368,
    "ARG_OF_PERICENTER": 149.1353,
    "MEAN_ANOMALY": 211.001,
    "EPHEMERIS_TYPE": 0,
    "CLASSIFICATION_TYPE": "U",
    "NORAD_CAT_ID": 53058,
    "ELEMENT_SET_NO": 999,
    "REV_AT_EPOCH": 18312,
    "BSTAR": 0.00010298,
    "MEAN_MOTION_DOT": 1.264e-05,
    "MEAN_MOTION_DDOT": 0.0,
    "TLE_LINE1": "1 53058U 22077R   25315.06293565  .00001264  00000+0  10298-3 0  9996",
    "TLE_LINE2": "2 53058  97.6035 134.0368 0002342 149.1353 211.0010 15.01256738183123",
    "COMMENT": "Grouped by shell and plane from TLE"
  },
  {
    "OBJECT_NAME": "STARLINK-4320",
    "OBJECT_ID": "22077S",
    "EPOCH": "2025-11-11T00:58:39.407232",
    "MEAN_MOTION": 15.01260902,
    "ECCENTRICITY": 0.0003652,
    "INCLINATION": 97.6026,
    "RA_OF_ASC_NODE": 134.0612,
    "ARG_OF_PERICENTER": 46.4227,
    "MEAN_ANOMALY": 313.73,
    "EPHEMERIS_TYPE": 0,
    "CLASSIFICATION_TYPE": "U",
    "NORAD_CAT_ID": 53059,
    "ELEMENT_SET_NO": 999,
    "REV_AT_EPOCH": 18311,
    "BSTAR": 0.00010134,
    "MEAN_MOTION_DOT": 1.244e-05,
    "MEAN_MOTION_DDOT": 0.0,
    "TLE_LINE1": "1 53059U 22077S   25315.04073388  .00001244  00000+0  10134-3 0  9991",
    "TLE_LINE2": "2 53059  97.6026 134.0612 0003652  46.4227 313.7300 15.01260902183119",
    "COMMENT": "Grouped by shell and plane from TLE"
  },
  {
    "OBJECT_NAME": "STARLINK-4305",
    "OBJECT_ID": "22077T",
    "EPOCH": "2025-11-11T05:54:13.175712",
    "MEAN_MOTION": 15.01256027,
    "ECCENTRICITY": 0.0002407,
    "INCLINATION": 97.6028,
    "RA_OF_ASC_NODE": 134.2629,
    "ARG_OF_PERICENTER": 69.8616,
    "MEAN_ANOMALY": 290.2867,
    "EPHEMERIS_TYPE": 0,
    "CLASSIFICATION_TYPE": "U",
    "NORAD_CAT_ID": 53060,
    "ELEMENT_SET_NO": 999,
    "REV_AT_EPOCH": 18314,
    "BSTAR": 0.0,
    "MEAN_MOTION_DOT": -8.92e-06,
    "MEAN_MOTION_DDOT": 0.0,
    "TLE_LINE1": "1 53060U 22077T   25315.24598583 -.00000892  00000+0 -64882-4 0  9994",
    "TLE_LINE2": "2 53060  97.6028 134.2629 0002407  69.8616 290.2867 15.01256027183144",
    "COMMENT": "Grouped by shell and plane from TLE"
  },
  {
    "OBJECT_NAME": "STARLINK-4308",
    "OBJECT_ID": "22077U",
    "EPOCH": "2025-11-11T05:43:33.331008",
    "MEAN_MOTION": 15.01265555,
    "ECCENTRICITY": 0.0003466,
    "INCLINATION": 97.6024,
    "RA_OF_ASC_NODE": 134.255,
    "ARG_OF_PERICENTER": 50.4189,
    "MEAN_ANOMALY": 309.7341,
    "EPHEMERIS_TYPE": 0,
    "CLASSIFICATION_TYPE": "U",
    "NORAD_CAT_ID": 53061,
    "ELEMENT_SET_NO": 999,
    "REV_AT_EPOCH": 18314,
    "BSTAR": 0.0,
    "MEAN_MOTION_DOT": -1.75e-05,
    "MEAN_MOTION_DDOT": 0.0,
    "TLE_LINE1": "1 53061U 22077U   25315.23858022 -.00001750  00000+0 -13168-3 0  9995",
    "TLE_LINE2": "2 53061  97.6024 134.2550 0003466  50.4189 309.7341 15.01265555183140",
    "COMMENT": "Grouped by shell and plane from TLE"
  }
]